QIANFAN-73              
1 63159U 25046A   25289.20514591  .00000145  00000+0  20637-3 0  9994
2 63159  88.9792 325.9799 0012930 292.7286  67.2498 13.50969907 39641
QIANFAN-74              
1 63160U 25046B   25289.18868230  .00000121  00000+0  16864-3 0  9996
2 63160  88.9792 325.8700 0002177  99.4121 260.7276 13.50971792 39702
QIANFAN-75              
1 63161U 25046C   25289.17626947  .00000170  00000+0  24484-3 0  9994
2 63161  88.9794 326.1040 0014054 296.0418  63.9286 13.50979559 39575
QIANFAN-76              
1 63162U 25046D   25289.17223037  .00000082  00000+0  10854-3 0  9996
2 63162  88.9794 326.0853 0011615 297.3124  62.6844 13.50972040 39580
QIANFAN-77              
1 63163U 25046E   25289.20337928  .00000354  00000+0  24812-3 0  9997
2 63163  88.9790 324.5616 0012561 257.6782 102.2988 13.96071535 40421
QIANFAN-78              
1 63164U 25046F   25289.13933839  .00000150  00000+0  21369-3 0  9991
2 63164  88.9792 325.9533 0013042 299.6966  60.2886 13.50972245 39653
QIANFAN-79              
1 63165U 25046G   25289.16801877  .00000155  00000+0  22100-3 0  9990
2 63165  88.9797 326.0556 0012711 297.6698  62.3163 13.50971437 39606
QIANFAN-80              
1 63166U 25046H   25289.18459168  .00000163  00000+0  23400-3 0  9998
2 63166  88.9793 325.7623 0011757 303.0764  56.9258 13.50972139 39760
